GLOBALSTAR M023         
1 25621U 99004A   25105.83579550 -.00000103  00000+0  22442-5 0  9996
2 25621  52.0101 243.3034 0009192 352.5602 172.8185 12.62505404207853
GLOBALSTAR M040         
1 25622U 99004B   25105.78180128 -.00000048  00000+0  31316-3 0  9996
2 25622  51.9910 247.5294 0000526 190.5138 312.2596 12.62007525207374
GLOBALSTAR M036         
1 25623U 99004C   25105.86880106 -.00000028  00000+0  80167-3 0  9995
2 25623  51.9986  44.5763 0010843 295.8660  97.7883 11.86593942171581
GLOBALSTAR M038         
1 25624U 99004D   25105.74376988 -.00000064  00000+0  25437-3 0  9990
2 25624  51.9965 251.4016 0001073 273.1840 195.7231 12.32524840194677
GLOBALSTAR M022         
1 25649U 99012A   25105.31186537 -.00000063  00000+0  28663-3 0  9991
2 25649  52.0019 101.8231 0002568  50.7563 348.6510 12.02498986168818
GLOBALSTAR M046         
1 25651U 99012C   25105.86010211 -.00000190  00000+0 -11185-2 0  9991
2 25651  52.0067  52.7404 0002351 118.0321 289.8961 12.09410164176128
